NORAD_CAT_ID,OBJECT_NAME,OBJECT_TYPE,EPOCH,MEAN_MOTION,ECCENTRICITY,INCLINATION,RA_OF_ASC_NODE,ARG_OF_PERICENTER,MEAN_ANOMALY,BSTAR,MEAN_MOTION_DOT,MEAN_MOTION_DDOT,TLE_LINE0,TLE_LINE1,TLE_LINE2,SEMIMAJOR_AXIS,PERIOD,APOGEE,PERIGEE,DECAYED
52614.0,STARLINK-3982,PAYLOAD,2023-10-16 03:10:27,15.08850521,0.0001406,53.2162,239.6505,95.8601,264.2551,0.00019405,2.803e-05,0.0,0 STARLINK-3982,1 52614U 22052S   23289.13226162  .00002803  00000-0  19405-3 0  9991,2 52614  53.2162 239.6505 0001406  95.8601 264.2551 15.08850521 79184,6917.848,95.437,540.686,538.741,0.0
52614.0,STARLINK-3982,PAYLOAD,2023-10-16 20:39:42,15.08836964,0.0001328,53.2167,236.3801,106.2986,253.8152,0.00030528,4.574e-05,0.0,0 STARLINK-3982,1 52614U 22052S   23289.86091040  .00004574  00000-0  30528-3 0  9992,2 52614  53.2167 236.3801 0001328 106.2986 253.8152 15.08836964 78925,6917.89,95.438,540.673,538.836,0.0
52614.0,STARLINK-3982,PAYLOAD,2023-10-17 23:41:15,15.0884315,0.0001217,53.2171,231.3249,109.2777,250.8347,0.00011349,1.519e-05,0.0,0 STARLINK-3982,1 52614U 22052S   23290.98698749  .00001519  00000-0  11349-3 0  9992,2 52614  53.2171 231.3249 0001217 109.2777 250.8347 15.08843150 79467,6917.871,95.437,540.578,538.894,0.0
52614.0,STARLINK-3982,PAYLOAD,2023-10-18 20:21:16,15.08844442,0.0001087,53.217,227.4606,101.6377,258.4737,0.00012013,1.625e-05,0.0,0 STARLINK-3982,1 52614U 22052S   23291.84810568  .00001625  00000-0  12013-3 0  9990,2 52614  53.2170 227.4606 0001087 101.6377 258.4737 15.08844442 79222,6917.867,95.437,540.484,538.98,0.0
52614.0,STARLINK-3982,PAYLOAD,2023-10-19 02:42:48,15.08854537,0.0001144,53.2159,226.2713,108.0705,252.0412,0.00026192,3.885e-05,0.0,0 STARLINK-3982,1 52614U 22052S   23292.11305942  .00003885  00000-0  26192-3 0  9999,2 52614  53.2159 226.2713 0001144 108.0705 252.0412 15.08854537 79636,6917.836,95.437,540.492,538.91,0.0
52614.0,STARLINK-3982,PAYLOAD,2023-10-19 20:12:03,15.088432,0.0001149,53.2166,222.9979,95.5361,264.5762,6.6238e-05,7.67e-06,0.0,0 STARLINK-3982,1 52614U 22052S   23292.84170360  .00000767  00000-0  66238-4 0  9995,2 52614  53.2166 222.9979 0001149  95.5361 264.5762 15.08843200 79747,6917.871,95.437,540.53,538.941,0.0
52614.0,STARLINK-3982,PAYLOAD,2023-10-20 04:08:58,15.08846692,0.0001172,53.2171,221.5124,91.0089,269.1038,0.00011054,1.472e-05,0.0,0 STARLINK-3982,1 52614U 22052S   23293.17290161  .00001472  00000-0  11054-3 0  9993,2 52614  53.2171 221.5124 0001172  91.0089 269.1038 15.08846692 79424,6917.86,95.437,540.536,538.914,0.0
52614.0,STARLINK-3982,PAYLOAD,2023-10-20 20:02:50,15.08831691,0.0001312,53.2174,218.5378,87.0611,273.0531,-0.00019418,-3.376e-05,0.0,0 STARLINK-3982,1 52614U 22052S   23293.83531131 -.00003376  00000-0 -19418-3 0  9990,2 52614  53.2174 218.5378 0001312  87.0611 273.0531 15.08831691 79892,6917.906,95.438,540.678,538.863,0.0
52614.0,STARLINK-3982,PAYLOAD,2023-10-21 03:59:46,15.08833124,0.0001553,53.2173,217.0512,89.5625,270.5545,-0.00011913,-2.183e-05,0.0,0 STARLINK-3982,1 52614U 22052S   23294.16651296 -.00002183  00000-0 -11913-3 0  9999,2 52614  53.2173 217.0512 0001553  89.5625 270.5545 15.08833124 79579,6917.901,95.438,540.841,538.692,0.0
52614.0,STARLINK-3982,PAYLOAD,2023-10-22 02:15:08,15.08868232,0.0001353,53.2172,212.889,100.1594,259.9551,0.00050861,7.822e-05,0.0,0 STARLINK-3982,1 52614U 22052S   23295.09385388  .00007822  00000-0  50861-3 0  9996,2 52614  53.2172 212.8890 0001353 100.1594 259.9551 15.08868232 80087,6917.794,95.436,540.595,538.723,0.0
52614.0,STARLINK-3982,PAYLOAD,2023-10-22 03:50:32,15.08869047,0.0001385,53.2167,212.5908,86.1379,273.9771,0.00051178,7.873e-05,0.0,0 STARLINK-3982,1 52614U 22052S   23295.16009322  .00007873  00000-0  51178-3 0  9993,2 52614  53.2167 212.5908 0001385  86.1379 273.9771 15.08869047 79721,6917.792,95.436,540.615,538.698,0.0
52614.0,STARLINK-3982,PAYLOAD,2023-10-22 18:09:02,15.08827851,0.0001575,53.2169,209.9169,88.3538,271.7635,3.9812e-06,-2.25e-06,0.0,0 STARLINK-3982,1 52614U 22052S   23295.75627814 -.00000225  00000-0  39812-5 0  9998,2 52614  53.2169 209.9169 0001575  88.3538 271.7635 15.08827851 80188,6917.918,95.438,540.872,538.693,0.0
52614.0,STARLINK-3982,PAYLOAD,2023-10-22 22:55:11,15.08828323,0.0001538,53.2174,209.0237,93.8058,266.311,8.4321e-06,-1.54e-06,0.0,0 STARLINK-3982,1 52614U 22052S   23295.95499953 -.00000154  00000-0  84321-5 0  9997,2 52614  53.2174 209.0237 0001538  93.8058 266.3110 15.08828323 79842,6917.916,95.438,540.845,538.717,0.0
52614.0,STARLINK-3982,PAYLOAD,2023-10-23 11:38:16,15.08834481,0.0001526,53.2164,206.6438,99.494,260.6225,-4.2819e-05,-9.69e-06,0.0,0 STARLINK-3982,1 52614U 22052S   23296.48491588 -.00000969  00000-0 -42819-4 0  9992,2 52614  53.2164 206.6438 0001526  99.4940 260.6225 15.08834481 80293,6917.897,95.438,540.818,538.707,0.0
52614.0,STARLINK-3982,PAYLOAD,2023-10-24 00:21:21,15.08843912,0.0001502,53.2158,204.2648,107.3213,252.7944,0.00035674,5.395e-05,0.0,0 STARLINK-3982,1 52614U 22052S   23297.01483463  .00005395  00000-0  35674-3 0  9991,2 52614  53.2158 204.2648 0001502 107.3213 252.7944 15.08843912 80377,6917.868,95.437,540.772,538.694,0.0
52614.0,STARLINK-3982,PAYLOAD,2023-10-24 11:29:04,15.08839998,0.0001782,53.2164,202.1862,86.6458,273.4738,0.00047948,7.351e-05,0.0,0 STARLINK-3982,1 52614U 22052S   23297.47851921  .00007351  00000-0  47948-3 0  9990,2 52614  53.2164 202.1862 0001782  86.6458 273.4738 15.08839998 80076,6917.88,95.438,540.978,538.513,0.0
52614.0,STARLINK-3982,PAYLOAD,2023-10-25 03:22:55,15.08851362,0.0001657,53.2161,199.2095,103.1774,256.9403,0.00042778,6.529e-05,0.0,0 STARLINK-3982,1 52614U 22052S   23298.14091449  .00006529  00000-0  42778-3 0  9998,2 52614  53.2161 199.2095 0001657 103.1774 256.9403 15.08851362 80540,6917.846,95.437,540.857,538.564,0.0
52614.0,STARLINK-3982,PAYLOAD,2023-10-25 22:27:32,15.08844844,0.0001771,53.2165,195.6393,106.1996,253.9191,6.0216e-05,6.7e-06,0.0,0 STARLINK-3982,1 52614U 22052S   23298.93579419  .00000670  00000-0  60216-4 0  9992,2 52614  53.2165 195.6393 0001771 106.1996 253.9191 15.08844844 80291,6917.866,95.437,540.956,538.505,0.0
52614.0,STARLINK-3982,PAYLOAD,2023-10-26 03:13:41,15.08848767,0.0001581,53.2165,194.7485,95.9258,264.1914,0.00021001,3.057e-05,0.0,0 STARLINK-3982,1 52614U 22052S   23299.13451334  .00003057  00000-0  21001-3 0  9990,2 52614  53.2165 194.7485 0001581  95.9258 264.1914 15.08848767 80697,6917.854,95.437,540.812,538.625,0.0
52614.0,STARLINK-3982,PAYLOAD,2023-10-26 20:42:56,15.08847036,0.0001529,53.2163,191.4765,94.3994,265.7173,0.00014283,1.986e-05,0.0,0 STARLINK-3982,1 52614U 22052S   23299.86315187  .00001986  00000-0  14283-3 0  9998,2 52614  53.2163 191.4765 0001529  94.3994 265.7173 15.08847036 80436,6917.859,95.437,540.782,538.666,0.0
52614.0,STARLINK-3982,PAYLOAD,2023-10-27 09:26:00,15.0885063,0.0001311,53.2168,189.0992,88.9632,271.151,0.00017135,2.441e-05,0.0,0 STARLINK-3982,1 52614U 22052S   23300.39306611  .00002441  00000-0  17135-3 0  9997,2 52614  53.2168 189.0992 0001311  88.9632 271.1510 15.08850630 80882,6917.848,95.437,540.62,538.806,0.0
52614.0,STARLINK-3982,PAYLOAD,2023-10-27 22:09:06,15.0883295,0.0001527,53.2162,186.7193,70.5035,289.6122,-0.0001392,-2.502e-05,0.0,0 STARLINK-3982,1 52614U 22052S   23300.92299532 -.00002502  00000-0 -13920-3 0  9997,2 52614  53.2162 186.7193 0001527  70.5035 289.6122 15.08832950 80592,6917.902,95.438,540.823,538.711,0.0
52614.0,STARLINK-3982,PAYLOAD,2023-10-27 23:44:29,15.0883367,0.0001311,53.2161,186.4223,71.1914,288.922,-0.00013342,-2.41e-05,0.0,0 STARLINK-3982,1 52614U 22052S   23300.98923414 -.00002410  00000-0 -13342-3 0  9992,2 52614  53.2161 186.4223 0001311  71.1914 288.9220 15.08833670 80979,6917.9,95.438,540.672,538.858,0.0
52614.0,STARLINK-3982,PAYLOAD,2023-10-28 09:16:48,15.08833817,0.0001343,53.2159,184.6405,87.3399,272.7746,-7.7114e-05,-1.515e-05,0.0,0 STARLINK-3982,1 52614U 22052S   23301.38667524 -.00001515  00000-0 -77114-4 0  9997,2 52614  53.2159 184.6405 0001343  87.3399 272.7746 15.08833817 80662,6917.899,95.438,540.693,538.835,0.0
52614.0,STARLINK-3982,PAYLOAD,2023-10-28 21:59:53,15.08839303,0.000133,53.2154,182.2624,94.0659,266.0486,4.7086e-05,4.62e-06,0.0,0 STARLINK-3982,1 52614U 22052S   23301.91659617  .00000462  00000-0  47086-4 0  9993,2 52614  53.2154 182.2624 0001330  94.0659 266.0486 15.08839303 80746,6917.883,95.438,540.668,538.827,0.0
52614.0,STARLINK-3982,PAYLOAD,2023-10-28 23:35:16,15.08843012,0.0001364,53.2156,181.965,91.2218,268.8931,0.00013076,1.794e-05,0.0,0 STARLINK-3982,1 52614U 22052S   23301.98283555  .00001794  00000-0  13076-3 0  9994,2 52614  53.2156 181.9650 0001364  91.2218 268.8931 15.08843012 81120,6917.871,95.437,540.68,538.793,0.0
52614.0,STARLINK-3982,PAYLOAD,2023-10-29 09:07:35,15.08846752,0.000148,53.2159,180.1799,87.2099,272.9063,0.00027928,4.16e-05,0.0,0 STARLINK-3982,1 52614U 22052S   23302.38027583  .00004160  00000-0  27928-3 0  9997,2 52614  53.2159 180.1799 0001480  87.2099 272.9063 15.08846752 80810,6917.86,95.437,540.749,538.701,0.0
52614.0,STARLINK-3982,PAYLOAD,2023-10-29 21:50:40,15.08849512,0.0001471,53.2152,177.7999,82.6988,277.4172,0.00035782,5.413e-05,0.0,0 STARLINK-3982,1 52614U 22052S   23302.91019480  .00005413  00000-0  35782-3 0  9992,2 52614  53.2152 177.7999 0001471  82.6988 277.4172 15.08849512 80899,6917.851,95.437,540.734,538.699,0.0
52614.0,STARLINK-3982,PAYLOAD,2023-10-30 01:01:26,15.08854273,0.0001527,53.2157,177.206,85.1283,274.9883,0.0004536,6.941e-05,0.0,0 STARLINK-3982,1 52614U 22052S   23303.04267291  .00006941  00000-0  45360-3 0  9992,2 52614  53.2157 177.2060 0001527  85.1283 274.9883 15.08854273 81281,6917.837,95.437,540.758,538.645,0.0
52614.0,STARLINK-3982,PAYLOAD,2023-10-30 20:06:05,15.08838867,0.00015,53.2157,173.6382,82.7658,277.3504,6.1041e-05,6.84e-06,0.0,0 STARLINK-3982,1 52614U 22052S   23303.83755920  .00000684  00000-0  61041-4 0  9993,2 52614  53.2157 173.6382 0001500  82.7658 277.3504 15.08838867 81400,6917.884,95.438,540.787,538.711,0.0
